{
  "type": "FeatureCollection",
  "features": [
    {
      "type": "Feature",
      "properties": {
        "norad_id": 33886,
        "name": "IRIDIUM 33 DEB",
        "group": "iridium-33-debris",
        "lat": 33.43688751499724,
        "lon": 66.07687764475534,
        "alt_km": 778.8297739938289,
        "timestamp": "2025-12-21T03:56:51.218003+00:00",
        "meta_object_name": "IRIDIUM 33 DEB",
        "meta_object_id": "1997-051BF",
        "meta_epoch": "2025-12-20T16:37:10.551936",
        "meta_mean_motion": 14.36060348,
        "meta_eccentricity": 0.0012997,
        "meta_inclination": 86.3824,
        "meta_ra_of_asc_node": 63.8814,
        "meta_arg_of_pericenter": 213.1254,
        "meta_mean_anomaly": 261.885,
        "meta_ephemeris_type": 0,
        "meta_classification_type": "U",
        "meta_norad_cat_id": 33886,
        "meta_element_set_no": 999,
        "meta_rev_at_epoch": 88166,
        "meta_bstar": 0.00013251,
        "meta_mean_motion_dot": 4.05e-06,
        "meta_mean_motion_ddot": 0,
        "tle_line1": "1 33886U 97051BF  25354.69248324  .00000405  00000+0  13251-3 0  9990",
        "tle_line2": "2 33886  86.3824  63.8814 0012997 213.1254 261.8850 14.36060348881661"
      },
      "geometry": {
        "type": "Point",
        "coordinates": [
          66.07687764475534,
          33.43688751499724
        ]
      }
    },
    {
      "type": "Feature",
      "properties": {
        "norad_id": 33887,
        "name": "IRIDIUM 33 DEB",
        "group": "iridium-33-debris",
        "lat": 5.135639103856418,
        "lon": 0.09444968934703155,
        "alt_km": 773.7100508160811,
        "timestamp": "2025-12-21T03:56:51.218013+00:00",
        "meta_object_name": "IRIDIUM 33 DEB",
        "meta_object_id": "1997-051BG",
        "meta_epoch": "2025-12-20T01:28:45.668352",
        "meta_mean_motion": 14.37227129,
        "meta_eccentricity": 0.00051987,
        "meta_inclination": 86.3041,
        "meta_ra_of_asc_node": 0.2367,
        "meta_arg_of_pericenter": 196.9799,
        "meta_mean_anomaly": 225.7634,
        "meta_ephemeris_type": 0,
        "meta_classification_type": "U",
        "meta_norad_cat_id": 33887,
        "meta_element_set_no": 999,
        "meta_rev_at_epoch": 88270,
        "meta_bstar": 0.00010697181,
        "meta_mean_motion_dot": 3.38e-06,
        "meta_mean_motion_ddot": 0,
        "tle_line1": "1 33887U 97051BG  25354.06163968  .00000338  00000+0  10697-3 0  9998",
        "tle_line2": "2 33887  86.3041   0.2367 0005198 196.9799 225.7634 14.37227129882706"
      },
      "geometry": {
        "type": "Point",
        "coordinates": [
          0.09444968934703155,
          5.135639103856418
        ]
      }
    },
    {
      "type": "Feature",
      "properties": {
        "norad_id": 33953,
        "name": "IRIDIUM 33 DEB",
        "group": "iridium-33-debris",
        "lat": 49.81876788323347,
        "lon": 54.417356838984475,
        "alt_km": 692.3090342184596,
        "timestamp": "2025-12-21T03:56:51.218022+00:00",
        "meta_object_name": "IRIDIUM 33 DEB",
        "meta_object_id": "1997-051BN",
        "meta_epoch": "2025-12-20T15:12:49.112064",
        "meta_mean_motion": 14.55391351,
        "meta_eccentricity": 0.0017918,
        "meta_inclination": 86.384,
        "meta_ra_of_asc_node": 50.3533,
        "meta_arg_of_pericenter": 78.7274,
        "meta_mean_anomaly": 73.2547,
        "meta_ephemeris_type": 0,
        "meta_classification_type": "U",
        "meta_norad_cat_id": 33953,
        "meta_element_set_no": 999,
        "meta_rev_at_epoch": 88418,
        "meta_bstar": 0.0006589,
        "meta_mean_motion_dot": 2.887e-05,
        "meta_mean_motion_ddot": 0,
        "tle_line1": "1 33953U 97051BN  25354.63390176  .00002887  00000+0  65890-3 0  9994",
        "tle_line2": "2 33953  86.3840  50.3533 0017918  78.7274  73.2547 14.55391351884188"
      },
      "geometry": {
        "type": "Point",
        "coordinates": [
          54.417356838984475,
          49.81876788323347
        ]
      }
    },
    {
      "type": "Feature",
      "properties": {
        "norad_id": 33960,
        "name": "IRIDIUM 33 DEB",
        "group": "iridium-33-debris",
        "lat": 43.88346545638135,
        "lon": -70.8468091895837,
        "alt_km": 603.0711658353775,
        "timestamp": "2025-12-21T03:56:51.218032+00:00",
        "meta_object_name": "IRIDIUM 33 DEB",
        "meta_object_id": "1997-051BV",
        "meta_epoch": "2025-12-20T19:54:30.769920",
        "meta_mean_motion": 14.85559199,
        "meta_eccentricity": 0.000737,
        "meta_inclination": 86.2542,
        "meta_ra_of_asc_node": 285.6986,
        "meta_arg_of_pericenter": 47.5357,
        "meta_mean_anomaly": 6.3643,
        "meta_ephemeris_type": 0,
        "meta_classification_type": "U",
        "meta_norad_cat_id": 33960,
        "meta_element_set_no": 999,
        "meta_rev_at_epoch": 88987,
        "meta_bstar": 0.0019148,
        "meta_mean_motion_dot": 0.00016604,
        "meta_mean_motion_ddot": 0,
        "tle_line1": "1 33960U 97051BV  25354.82952280  .00016604  00000+0  19148-2 0  9999",
        "tle_line2": "2 33960  86.2542 285.6986 0007370  47.5357   6.3643 14.85559199889870"
      },
      "geometry": {
        "type": "Point",
        "coordinates": [
          -70.8468091895837,
          43.88346545638135
        ]
      }
    },
    {
      "type": "Feature",
      "properties": {
        "norad_id": 33966,
        "name": "IRIDIUM 33 DEB",
        "group": "iridium-33-debris",
        "lat": 1.7246617435220122,
        "lon": 42.52051923837322,
        "alt_km": 735.2341850422654,
        "timestamp": "2025-12-21T03:56:51.218042+00:00",
        "meta_object_name": "IRIDIUM 33 DEB",
        "meta_object_id": "1997-051CB",
        "meta_epoch": "2025-12-20T09:48:07.873344",
        "meta_mean_motion": 14.49621404,
        "meta_eccentricity": 0.00082754,
        "meta_inclination": 86.3914,
        "meta_ra_of_asc_node": 42.7361,
        "meta_arg_of_pericenter": 163.9635,
        "meta_mean_anomaly": 214.8558,
        "meta_ephemeris_type": 0,
        "meta_classification_type": "U",
        "meta_norad_cat_id": 33966,
        "meta_element_set_no": 999,
        "meta_rev_at_epoch": 88553,
        "meta_bstar": 0.00035675491,
        "meta_mean_motion_dot": 1.39e-05,
        "meta_mean_motion_ddot": 0,
        "tle_line1": "1 33966U 97051CB  25354.40842446  .00001390  00000+0  35675-3 0  9991",
        "tle_line2": "2 33966  86.3914  42.7361 0008275 163.9635 214.8558 14.49621404885535"
      },
      "geometry": {
        "type": "Point",
        "coordinates": [
          42.52051923837322,
          1.7246617435220122
        ]
      }
    },
    {
      "type": "Feature",
      "properties": {
        "norad_id": 34071,
        "name": "IRIDIUM 33 DEB",
        "group": "iridium-33-debris",
        "lat": 64.0861844205072,
        "lon": 21.726285698633937,
        "alt_km": 714.4866672015069,
        "timestamp": "2025-12-21T03:56:51.218051+00:00",
        "meta_object_name": "IRIDIUM 33 DEB",
        "meta_object_id": "1997-051CE",
        "meta_epoch": "2025-12-20T07:46:13.736640",
        "meta_mean_motion": 14.49495052,
        "meta_eccentricity": 0.00099424,
        "meta_inclination": 86.3449,
        "meta_ra_of_asc_node": 14.5318,
        "meta_arg_of_pericenter": 87.1409,
        "meta_mean_anomaly": 273.0933,
        "meta_ephemeris_type": 0,
        "meta_classification_type": "U",
        "meta_norad_cat_id": 34071,
        "meta_element_set_no": 999,
        "meta_rev_at_epoch": 88444,
        "meta_bstar": 0.00041457819,
        "meta_mean_motion_dot": 1.609e-05,
        "meta_mean_motion_ddot": 0,
        "tle_line1": "1 34071U 97051CE  25354.32377010  .00001609  00000+0  41458-3 0  9999",
        "tle_line2": "2 34071  86.3449  14.5318 0009942  87.1409 273.0933 14.49495052884444"
      },
      "geometry": {
        "type": "Point",
        "coordinates": [
          21.726285698633937,
          64.0861844205072
        ]
      }
    },
    {
      "type": "Feature",
      "properties": {
        "norad_id": 34077,
        "name": "IRIDIUM 33 DEB",
        "group": "iridium-33-debris",
        "lat": 13.003131369627019,
        "lon": 48.63271413880872,
        "alt_km": 672.0394750871747,
        "timestamp": "2025-12-21T03:56:51.218060+00:00",
        "meta_object_name": "IRIDIUM 33 DEB",
        "meta_object_id": "1997-051CL",
        "meta_epoch": "2025-12-20T15:28:27.275232",
        "meta_mean_motion": 14.64914051,
        "meta_eccentricity": 0.0009286,
        "meta_inclination": 86.3851,
        "meta_ra_of_asc_node": 48.0252,
        "meta_arg_of_pericenter": 14.2051,
        "meta_mean_anomaly": 139.8659,
        "meta_ephemeris_type": 0,
        "meta_classification_type": "U",
        "meta_norad_cat_id": 34077,
        "meta_element_set_no": 999,
        "meta_rev_at_epoch": 88448,
        "meta_bstar": 0.00067746,
        "meta_mean_motion_dot": 3.646e-05,
        "meta_mean_motion_ddot": 0,
        "tle_line1": "1 34077U 97051CL  25354.64476013  .00003646  00000+0  67746-3 0  9994",
        "tle_line2": "2 34077  86.3851  48.0252 0009286  14.2051 139.8659 14.64914051884481"
      },
      "geometry": {
        "type": "Point",
        "coordinates": [
          48.63271413880872,
          13.003131369627019
        ]
      }
    }
  ]
}